X,Y,OBJECTID,ORGID,ORGANIZATI,ADDRESS,CITY,STATE,ZIP,Lon,Lat,GRTYPE
491990.498671751469374,39014.197056723758578,1,PS001,Academy School,860 WESTERN AVENUE,BRATTLEBORO,VT,05301,-72.59799405,42.85117643,Elementary
435537.430075175128877,176728.580160981044173,2,PS002,Addison Central School,121 VT RTE 17 WEST,ADDISON,VT,05491,-73.30492856,44.08795907,Elementary
509766.592768306843936,248669.714947981759906,3,PS007,Albany Community School,351 MAIN ST,ALBANY,VT,05820,-72.37668799,44.73816761,Elementary
502349.552505399100482,107700.850944694131613,4,PS008,Albert Bridge Sch,108 BROWNSVILLE HARTLAND RD,BROWNSVILLE,VT,05037,-72.47096252,43.4695015,Elementary
452396.858698876574636,220912.834538130089641,5,PS009,Albert D Lawton School,104 MAPLE STREET,ESSEX JUNCTION,VT,05452,-73.098446,44.486875,Middle
437061.518908594734967,275731.442973185330629,6,PS010,Alburgh Community Ed Center,14 NORTH MAIN STREET,ALBURG,VT,05440,-73.29797387,44.97897127,Elementary
452539.363147010095417,216566.417638082057238,7,PS398,Allen Brook School,497 TALCOTT ROAD,WILLISTON,VT,05495,-73.09625628,44.44777096,Middle
446950.222533804364502,63036.305751096457243,8,PS011,Arlington Memorial High School,529 EAST ARLINGTON RD,ARLINGTON,VT,05250,-73.15130615,43.06560898,Secondary
491136.534254956059158,74462.965217739343643,9,PS120,Athens/Grafton Joint Contract School,58 SCHOOL STREET,GRAFTON,VT,05146,-72.60900489,43.17026892,Elementary
476037.007456893101335,253838.581128794699907,10,PS015,Bakersfield School,82 ACADEMY DRIVE,BAKERSFIELD,VT,05441,-72.80279541,44.78434753,Elementary
490294.143342171795666,136242.893595276400447,11,PS017,Barnard Academy,6208 RTE 12,BARNARD,VT,05031,-72.62046333,43.72634479,Elementary
533452.213398365303874,200874.283607468008995,12,PS018,Barnet Elementary School,163 KID ROW,BARNET,VT,05821,-72.08073724,44.30733445,Elementary
499616.599286853335798,187136.410442674532533,13,PS381,Barre City Elem/Middle School,50 PARKSIDE TERRACE,BARRE,VT,05641,-72.50479524,44.1844651,Elementary
501172.637048303149641,185316.900936979800463,14,PS020,Barre Town Elementary School,70 WEBSTERVILLE ROAD,BARRE,VT,05641-9029,-72.48533774,44.16808877,Elementary
463544.790869259275496,133519.666456738486886,15,PS021,Barstow Memorial School,223 CHITTENDEN ROAD,CHITTENDEN,VT,05737,-72.95226959,43.70100263,Elementary
525361.158158830367029,249895.285253122448921,16,PS022,Barton Graded School,137 CHURCH STREET,BARTON,VT,05822,-72.17973383,44.7488141,Elementary
447720.845638521946967,180783.215044757351279,17,PS023,Beeman Elementary School,50 NORTH STREET,NEW HAVEN,VT,05472,-73.15320985,44.12541916,Elementary
504374.35455528460443,70356.366429913789034,18,PS024,Bellows Falls Middle School,15 SCHOOL STREET,BELLOWS FALLS,VT,05101,-72.44623558,43.13334237,Middle
504621.167483514174819,68748.174940416589379,19,PS025,Bellows Falls UHS #27,406 HIGH SCHOOL ROAD,BELLOWS FALLS,VT,05101,-72.44321544,43.1188646,Secondary
459300.787153306417167,240499.713020373135805,20,PS405,Bellows Free Academy (Fairfax),75 HUNT STREET,FAIRFAX,VT,05454,-73.01320452,44.66355829,Secondary
453850.59770823083818,256607.79674737341702,21,PS406,Bellows Free Academy (St Albans),71 SOUTH MAIN STREET,ST ALBANS,VT,05478-2297,-73.083382,44.808179,Secondary
443303.282242408022285,42528.882243998348713,22,PS029,Bennington Elementary School,128 PARK STREET,BENNINGTON,VT,05201,-73.19399873,42.88075421,Elementary
435348.730170999653637,134404.02933756262064,23,PS031,Benson Village School,32 SCHOOL STREET,BENSON,VT,05731,-73.30215445,43.70704254,Elementary
478990.453603643923998,274731.909148253500462,24,PS032,Berkshire Elementary School,4850 WATER TOWER ROAD,RICHFORD,VT,05476,-72.76634216,44.97245407,Elementary
494273.865201878361404,190474.552781783044338,25,PS033,Berlin Elementary School,372 PAINE TURNPIKE NO - BERLIN,BERLIN,VT,05602,-72.57165386,44.21448573,Elementary
488456.282860459759831,148124.610854340717196,26,PS034,Bethel Elementary School,273 PLEASANT ST RR#1 BOX 1003,BETHEL,VT,05032,-72.6435293,43.83326046,Elementary
443308.811586412601173,162888.38622809201479,27,PS076,Bingham Memorial School,112 SCHOOL ROAD,CORNWALL,VT,05753,-73.20641622,43.96404667,Elementary
484724.283240984193981,99748.138233287259936,28,PS035,Black River US #39,43 MAIN STREET,LUDLOW,VT,05149,-72.68856553,43.39776637,Secondary
533331.199638253077865,184002.974791755899787,29,PS036,Blue Mountain US #21,2420 ROUTE 302,WELLS RIVER,VT,05081,-72.08332655,44.15550456,K-12
530263.643923396244645,167013.452983932569623,30,PS037,Bradford Elementary School,761 FAIRGROUND RD,BRADFORD,VT,05033,-72.12264626,44.00273384,Elementary
482145.964646583423018,161751.099059032276273,31,PS038,Braintree School,66 BENT HILL ROAD,BRAINTREE,VT,05060,-72.72244448,43.95577787,Elementary
494979.573234534822404,37349.108543174341321,32,PS040,Brattleboro UHS #6,131 FAIRGROUND ROAD,BRATTLEBORO,VT,05301,-72.56140872,42.83621268,Secondary
463001.768148753792048,199609.771990289911628,33,PS041,Brewster Pierce Elementary School,120 SCHOOL STREET,HUNTINGTON,VT,05462-9712,-72.96361472,44.29578277,Elementary
489955.688941855914891,120893.560716981068254,34,PS042,Bridgewater Village School,7335 ROUTE 4 WEST,BRIDGEWATER,VT,05034,-72.62437852,43.58818477,Elementary
434547.945018254220486,164845.508533913642168,35,PS043,Bridport Central School,3442 VT RT 22A,BRIDPORT,VT,05734,-73.31581429,43.98093251,Elementary
547925.908515845425427,258100.212748764082789,36,PS044,Brighton Elementary School,825 RAILROAD ST,ISLAND POND,VT,05846,-71.8940215,44.82149149,Elementary
453822.577740204520524,182156.675014035776258,37,PS045,Bristol Elementary School,57 MOUNTAIN ST,BRISTOL,VT,05443,-73.07709527,44.13819015,Elementary
491446.001647244207561,168467.653561286628246,38,PS047,Brookfield Elementary School,1728 RIDGE RD,BROOKFIELD,VT,05036,-72.60668329,44.01639526,Elementary
528655.507985898293555,257809.051148492842913,39,PS049,Brownington Central School,103 CHASE ROAD,BROWNINGTON,VT,05860-9765,-72.13768768,44.81990433,Elementary
464671.061718308366835,224429.565549405291677,40,PS050,Browns River Middle School,20 RIVER ROAD,JERICHO,VT,05465,-72.94438583,44.51922689,Middle
542856.405151124112308,236191.13957635872066,41,PS051,Burke Town School,3293 BURKE HOLLOW ROAD,WEST BURKE,VT,05871-8913,-71.95995496,44.62466079,Elementary
441523.404736749827862,222051.398635191842914,42,PS052,Burlington Senior High School,52 INSTITUTE ROAD,BURLINGTON,VT,05401,-73.2352609,44.49632262,Secondary
453048.836683483794332,73900.724833214655519,43,PA002,Burr And Burton Academy,57 SEMINARY AVENUE,MANCHESTER,VT,05254,-73.07735443,43.1638031,Charter
440922.058432189747691,223921.477356933057308,44,PS080,C P Smith School,332 ETHAN ALLEN PARKWAY,BURLINGTON,VT,05401,-73.2430351,44.51310192,Elementary
515185.830149353481829,211483.587297348305583,45,PS055,Cabot School,25 COMMON ROAD,CABOT,VT,05647,-72.30936188,44.40342498,K-12
503846.987642793916166,202144.578008651733398,46,PS056,Calais Elementary School,321 LIGHTENING RIDGE ROAD,PLAINFIELD,VT,05667,-72.451775,44.319526,Elementary
474081.111135072074831,238305.78981832973659,47,PS057,Cambridge Elementary School,186 SCHOOL ST,JEFFERSONVILLE,VT,05464,-72.82672221,44.64450048,Elementary
460627.850578542798758,212700.61104248277843,48,PS058,Camels Hump Middle School,173 SCHOOL STREET,RICHMOND,VT,05477,-72.99435,44.413467,Middle
575880.732477880083025,277694.556703012436628,49,PS059,Canaan Schools,99 SCHOOL STREET,CANAAN,VT,05903,-71.53766175,44.99536987,K-12
488873.990636848844588,98204.38104784861207,50,PS063,Cavendish Town Elem School,573 MAIN ST,PROCTORSVILLE,VT,05153,-72.63730977,43.38394374,Elementary
504020.008058954961598,70237.242205802351236,51,PS249,Central Elementary School,50 SCHOOL STREET EXTENSION,BELLOWS FALLS,VT,05101,-72.45059165,43.13227203,Elementary
447043.919685891829431,219246.113768577575684,52,PS064,Chamberlin School,262 WHITE STREET,SO BURLINGTON,VT,05403-5940,-73.165566,44.471504,Elementary
443238.223042347468436,217673.643623113632202,53,PS065,Champlain Elementary School,800 PINE STREET,BURLINGTON,VT,05401,-73.21322112,44.45706494,Elementary
451376.559561926871538,205120.249051421880722,54,PS066,Champlain Valley UHS #15,369 CVU ROAD,HINESBURG,VT,05461,-73.10979326,44.34468864,Secondary
537983.830042585730553,260424.807438928633928,55,PS067,Charleston Elem School,255 CENTER SCHOOL ROAD,WEST CHARLESTON,VT,05872,-72.01955107,44.8430074,Elementary
442048.130625238642097,201913.996760437265038,56,PS068,Charlotte Central School,408 HINESBURG ROAD,CHARLOTTE,VT,05445,-73.22641754,44.31515121,Elementary
504287.161083203740418,165190.657590234652162,57,PS069,Chelsea Elem High School,6 SCHOOL ST,CHELSEA,VT,05038-9746,-72.44655807,43.98693886,K-12
492250.569071993231773,84947.373291503638029,58,PS070,Chester Andover US #29,72 MAIN STREET,CHESTER,VT,05143,-72.59545135,43.26465607,Elementary
462196.129620003513992,118225.350538495928049,59,PS071,Clarendon Elementary School,84 GRANGE HALL RD,NORTH CLARENDON,VT,05759,-72.9679315,43.56327856,Elementary
443299.186114404350519,226831.540207643061876,60,PS072,Colchester High School,131 LAKER LANE,COLCHESTER,VT,05446,-73.21345943,44.53947928,Secondary
443596.185794680379331,226918.180591722950339,61,PS073,Colchester Middle School,425 BLAKELY ROAD,COLCHESTER,VT,05446,-73.20973208,44.54028221,Middle
548517.612452396191657,214208.639459887519479,62,PS074,Concord Graded/High School,173 SCHOOL STREET,CONCORD,VT,05824,-71.89068604,44.42648315,K-12
518577.435400512069464,262503.479184864088893,63,PS077,Coventry Village School,348 ROUTE 5,COVENTRY,VT,05825,-72.26493897,44.86248181,Elementary
509379.807999946177006,239348.322939300909638,64,PS078,Craftsbury Schools,1422 NORTH CRAFTSBURY ROAD,CRAFTSBURY COMM,VT,05827,-72.38174234,44.65428855,K-12
479857.181412450969219,202376.440280867740512,65,PS391,Crossett Brook Middle US #45,5672 VT ROUTE 100,DUXBURY,VT,05676,-72.75251376,44.32134377,Middle
459857.685329825617373,94549.214324444532394,66,PS079,Currier Memorial US #23,234 NORTH MAIN ST,DANBY,VT,05739-0243,-72.99513355,43.35005342,Elementary
528394.356625654734671,212350.282978156581521,67,PS082,Danville School,148 PEACHAM ROAD,DANVILLE,VT,05828,-72.14350128,44.41082764,K-12
470409.535323652438819,43318.795076733455062,68,PS083,Deerfield Valley Elem School,360 RT 100 NORTH,WILMINGTON,VT,05363-9634,-72.86225446,42.88939531,Elementary
530083.902483228594065,277983.900319281965494,69,PS084,Derby Elementary School,907 ELM STREET,DERBY LINE,VT,05830,-72.11842851,45.0013908,Elementary
454027.479756395332515,80351.566055223345757,70,PS085,Dorset School,130 SCHOOL DRIVE,DORSET,VT,05251,-73.06585693,43.22192764,Elementary
514374.485252598300576,131955.067671282216907,71,PS378,Dothan Brook School,2300 CHRISTIAN STREET,WHITE RIVER JCT,VT,05001,-72.32170708,43.68767582,Elementary
496178.55781165137887,208125.065182220190763,72,PS357,Doty Memorial School,24 CALAIS RD,WORCESTER,VT,05682-0162,-72.54794862,44.3733486,Elementary
474700.923871649429202,48797.547849835827947,73,PS086,Dover Elementary School,9 SCHOOLHOUSE ROAD,EAST DOVER,VT,05341,-72.80996601,42.9388682,Elementary
496900.755956324748695,48166.103881247341633,74,PS087,Dummerston Schools,52 SCHOOLHOUSE ROAD,EAST DUMMERSTON,VT,05346,-72.53796893,42.93359735,Elementary
500375.88799156062305,198515.007445270195603,75,PS091,East Montpelier Elem School,665 VINCENT FLATS RD,EAST MONTPELIER,VT,05651-0190,-72.49529056,44.28687085,Elementary
494962.03889851924032,244881.352960452437401,76,PS093,Eden Central School,140 KNOWLES FLAT RD,EDEN,VT,05652,-72.5635715,44.70412468,Elementary
443730.869186806492507,219710.143081011250615,77,PS094,Edmunds Elementary School,299 MAIN STREET,BURLINGTON,VT,05401,-73.20725266,44.47542949,Elementary
443670.13933074939996,219715.533033015206456,78,PS095,Edmunds Middle School,275 MAIN STREET,BURLINGTON,VT,05401,-73.20801651,44.47547326,Middle
501261.24978438578546,89549.302895788103342,79,PS277,Elm Hill School,10 HOOVER STREET,SPRINGFIELD,VT,05156,-72.48445437,43.30611846,Elementary
498177.149173513054848,226717.127151535823941,80,PS156,Elmore School,1199 VT RTE 12,LAKE ELMORE,VT,05657,-72.52293719,44.54067575,Elementary
476225.875809069722891,267169.526549210771918,81,PS096,Enosburgh Elementary School,303 DICKENSON AVENUE,ENOSBURG FALLS,VT,05450,-72.80103302,44.90431595,Elementary
476004.308960863389075,267266.76661330088973,82,PS098,Enosburgh Falls Middle-High School,65 DICKENSON AVENUE,ENOSBURG FALLS,VT,05450,-72.80384312,44.90518355,Secondary
455819.472206064499915,223797.55722881667316,83,PS099,Essex Elementary School,1 BIXBY HILL ROAD,ESSEX JUNCTION,VT,05452,-73.055667,44.513052,Elementary
455591.213517852127552,222253.235947379842401,84,PS101,Essex Middle School,60 FOUNDERS RD,ESSEX JUNCTION,VT,05452,-73.05840502,44.49914065,Middle
451609.794122143648565,222089.734123226255178,85,PS388,Essex UHSD #46,2 EDUCATIONAL LANE,ESSEX JUNCTION,VT,05452,-73.1084502,44.49741358,Secondary
438199.587517654523253,121918.65268593467772,86,PS103,Fair Haven Grade School,103 N. MAIN STREET,FAIR HAVEN,VT,05743,-73.26535757,43.59491721,Elementary
437832.208445312455297,122892.669966842979193,87,PS104,Fair Haven UHS #16,33 MECHANIC STREET EXTENSION,FAIR HAVEN,VT,05743,-73.27001871,43.60365286,Secondary
464561.712982206605375,255687.665034517645836,88,PS105,Fairfield Center School,57 PARK STREET,FAIRFIELD,VT,05455,-72.94792175,44.80051041,Elementary
469275.901658596470952,186620.598602194339037,89,PS107,Fayston Elementary School,782 GERMAN FLATS ROAD,FAYSTON,VT,05673,-72.88423573,44.17917677,Elementary
440221.482943537645042,189889.135949237272143,90,PS108,Ferrisburgh Central School,56 LITTLE CHICAGO ROAD,FERRISBURGH,VT,05456,-73.24793915,44.20679102,Elementary
446759.056581626646221,63100.050775155425072,91,PS109,Fisher School,504 EAST ARLINGTON RD,ARLINGTON,VT,05250,-73.15365909,43.06616937,Elementary
466388.184279907494783,241220.418301044031978,92,PS110,Fletcher Elementary School,340 SCHOOL ROAD,CAMBRIDGE,VT,05444,-72.92388459,44.67041048,Elementary
471724.680540877394378,81925.059048688039184,93,PS111,Flood Brook US #301,91 VT ROUTE 11,LONDONDERRY,VT,05148,-72.8481151,43.23696113,Elementary
436351.825211933813989,237656.864121723920107,94,PS112,Folsom Ed And Community CTR,75 SOUTH STREET,SOUTH HERO,VT,05486,-73.30220795,44.63631058,Elementary
455842.74990208633244,222396.730219513177872,95,PS113,Founders Memorial School,33 FOUNDERS RD,ESSEX JUNCTION,VT,05452,-73.05525456,44.50044737,Elementary
466867.529048353433609,276104.220701532438397,96,PS115,Franklin Elementary School,15 SCHOOL ST,FRANKLIN,VT,05457,-72.92011366,44.98434093,Elementary
446077.317316991277039,217613.110375057905912,97,PS273,Frederick H Tuttle Middle School,500 DORSET STREET,S BURLINGTON,VT,05403,-73.17754367,44.45673739,Middle
451357.428937909193337,248530.934915851801634,98,PS117,Georgia Elem/Middle School,4416 ETHAN ALLEN HIGHWAY,ST ALBANS,VT,05478,-73.11412605,44.7353341,Elementary
524601.352974122390151,245125.112832680344582,99,PS118,Glover Community School,100 SCHOOL STREET,GLOVER,VT,05839,-72.18955836,44.70591407,Elementary
437295.728700812906027,247576.643458962440491,100,PS122,Grand Isle School,224 US RTE 2,GRAND ISLE,VT,05458,-73.2915268,44.7256546,Elementary
493371.994353038258851,83654.898538298904896,101,PS124,Green Mountain UHS #35,716 VT RTE 103 SOUTH,CHESTER,VT,05143,-72.581623,43.25303269,Secondary
494687.301234262995422,39074.192832781001925,102,PS385,Green Street School,164 GREEN STREET,BRATTLEBORO,VT,05301,-72.565,42.85174,Elementary
574323.440700429491699,230008.6268026009202,103,PS127,Guildhall Elementary School,ROUTE 102,GUILDHALL,VT,05905,-71.56436517,44.5664669,Elementary
489991.40375788975507,33410.512315506115556,104,PS128,Guilford Central School,374 SCHOOL ROAD,GUILFORD,VT,05301,-72.62235285,42.80070816,Elementary
478023.384034743532538,31618.768057836219668,105,PS129,Halifax School,246 BRANCH ROAD,WEST HALIFAX,VT,05358,-72.76858832,42.78432902,Elementary
510481.961344973184168,222576.821099679917097,106,PS131,Hardwick Elementary School,135 SOUTH MAIN STREET,HARDWICK,VT,05843,-72.3681882,44.50334171,Elementary
514582.012164791114628,128633.218324188143015,107,PS134,Hartford High School,37 HIGHLAND AVENUE,WHITE RIVER JCT,VT,05001,-72.31922282,43.6577728,Secondary
514509.759876724332571,128504.64962006919086,108,PS135,Hartford Mem Middle School,245 HIGHLAND AVENUE,WHITE RIVER JCT,VT,05001,-72.320122,43.656617,Middle
508560.052991182543337,115330.187783798202872,109,PS137,Hartland Elementary School,97 MARTINSVILLE ROAD,HARTLAND,VT,05048,-72.39408875,43.5381279,Elementary
477115.562081897631288,194920.713169923052192,110,PS138,Harwood UHS #19,458 VT ROUTE 100,DUXBURY,VT,05660,-72.78655636,44.2541636,Secondary
510755.15225722733885,223195.266156256198883,111,PS139,Hazen UHS #26,126 HAZEN UNION DRIVE,HARDWICK,VT,05843,-72.36473994,44.50890333,Secondary
450076.265288716182113,221163.706858364865184,112,PS141,Hiawatha School,34 HIAWATHA AVENUE,ESSEX JUNCTION,VT,05452,-73.127642,44.488976,Elementary
457059.789135219529271,271390.801433142274618,113,PS142,Highgate Elementary School,219 GORE ROAD,HIGHGATE CENTER,VT,05459,-73.044068,44.941403,Elementary
451527.720778067596257,203080.315865522250533,114,PS143,Hinesburg Community School,10888 RT 116,HINESBURG,VT,05461,-73.107708,44.326341,Elementary
538429.295771000906825,274879.834908390417695,115,PS144,Holland Elementary School,26 SCHOOL ROAD,DERBY LINE,VT,05830,-72.01281915,44.97305666,Elementary
440433.107263734564185,223955.767148964107037,116,PS169,Hunt Middle School,1364 NORTH AVENUE,BURLINGTON,VT,05401,-73.24918817,44.51337031,Middle
490990.57841482013464,232433.110772859305143,117,PS145,Hyde Park Elementary School,50 EAST MAIN STREET,HYDE PARK,VT,05655,-72.61346667,44.59206173,Elementary
443213.958338324911892,221110.78065031580627,118,PS337,Integrated Arts Acad At Ho Wheeler,6 ARCHIBALD STREET,BURLINGTON,VT,05401,-73.21390296,44.48799308,Elementary
517973.438727949745953,255963.635850774124265,119,PS147,Irasburg Village School,292 ROUTE 58 EAST,IRASBURG,VT,05845,-72.27281264,44.80364628,Elementary
433215.190073012374341,265043.415443230420351,120,PS148,Isle La Motte Elem School,534 SCHOOL ST,ISLE LAMOTTE,VT,05463,-73.34532296,44.88245167,Elementary
445867.549124795943499,222468.608363579958677,121,PS154,JFK Middle,70 NORMAND STREET,WINOOSKI,VT,05404-1393,-73.18068707,44.50041556,Elementary
439577.07910293713212,224369.595501350238919,122,PS155,J J Flynn School,1645 NORTH AVENUE,BURLINGTON,VT,05401,-73.26000212,44.51702307,Elementary
477606.573282355442643,67146.756186924874783,123,PS149,Jamaica Village School,347 DEPOT ST,JAMAICA,VT,05343,-72.77510269,43.10413262,Elementary
505126.863867986015975,272500.172954175621271,124,PS374,Jay/Westfield Joint School,257 REVOIR FLATS RD,JAY,VT,05859,-72.43502808,44.95266342,Elementary
461029.376082916744053,222963.382252041250467,125,PS152,Jericho Elementary School,90 VT RTE 15,JERICHO,VT,05465-9423,-72.99008067,44.50584517,Elementary
445842.51949277240783,222551.264363655820489,126,PS351,Winooski High School,80 NORMAND STREET,WINOOSKI,VT,05404,-73.18101044,44.50115749,Secondary
486112.757994277402759,237452.549625534564257,127,PS153,Johnson Elementary School,57 COLLEGE HILL,JOHNSON,VT,05656,-72.67503444,44.63715519,Elementary
476277.547745117917657,127192.007186846807599,128,PS267,Killington Elementary School,686 SCHOOL HOUSE ROAD,KILLINGTON,VT,05751,-72.79402923,43.64456558,Elementary
522138.120971828699112,253643.103752613067627,129,PS157,Lake Region UHS #24,317 LAKE REGION ROAD,ORLEANS,VT,05860,-72.2202718,44.78264726,Secondary
516360.140038447454572,231198.185331709682941,130,PS126,Lakeview US #43,189 LAURENDON AVE,GREENSBORO,VT,05841,-72.29399645,44.58081885,Elementary
489592.179565518163145,233432.190069790929556,131,PS158,Lamoille UHS,736 VT ROUTE 15 WEST,HYDE PARK,VT,05655,-72.63109859,44.60103386,Secondary
451032.117449605837464,152024.980905974283814,132,PS160,Leicester Central School,68 SCHOOLHOUSE ROAD,LEICESTER,VT,05733,-73.10918539,43.86683205,Elementary
486388.218218534253538,60729.476436948403716,133,PS161,Leland And Gray UHS #34,2042 VT RT 30,TOWNSHEND,VT,05353,-72.667064,43.046575,Secondary
461080.640338964760303,177587.532737780362368,134,PS162,Lincoln Community School,795 EAST RIVER RD,LINCOLN,VT,05443,-72.98605507,44.09749133,Elementary
458168.081616251729429,134067.983257250860333,135,PS165,Lothrop School,3447 US ROUTE 7,PITTSFORD,VT,05763,-73.01901401,43.70565428,Elementary
504044.54156297724694,256131.542666930705309,136,PS166,Lowell Graded School,52 GELO PARK ROAD,LOWELL,VT,05847,-72.44887477,44.80537179,Elementary
484728.563944987952709,99672.000761216506362,137,PS167,Ludlow Elementary School,45 MAIN STREET,LUDLOW,VT,05149,-72.68851056,43.39708113,Elementary
562561.21528147533536,213024.174178782850504,138,PS168,Lunenburg/Gilman Schools,2720 RIVER ROAD,GILMAN,VT,05904,-71.71447522,44.41474754,Elementary
538510.493339076638222,226576.103151405230165,139,PA003,Lyndon Institute,63 KING DR,LYNDON CENTER,VT,05850,-72.01543615,44.53838102,Charter
540903.328413304872811,227495.027952261269093,140,PS170,Lyndon Town School,2591 LILY POND ROAD,LYNDONVILLE,VT,05851,-71.98525626,44.54651873,Elementary
494430.375538024120033,195862.399698801338673,141,PS173,Main Street Middle School,170 MAIN STREET,MONTPELIER,VT,05602,-72.56975264,44.26297673,Middle
442536.101057693362236,124648.131600476801395,142,PS061A,Castleton Elementary School,263 ELM SCHOOL ROAD,CASTLETON,VT,05735,-73.21194663,43.61982985,Elementary
445230.369348202832043,123785.382671672850847,143,PS061B,Castleton Village School,47 MECHANIC ST,CASTLETON,VT,05735,-73.17848115,43.61226793,Middle
443744.341570818796754,226731.329263549298048,144,PS174,Malletts Bay School,609 BLAKELY RD,COLCHESTER,VT,05446,-73.20784759,44.53861237,Elementary
454987.41473328974098,75546.471650747582316,145,PS175,Manchester Elem/Middle School,80 MEMORIAL AVENUE,MANCHESTER CTR,VT,05255,-73.05365081,43.17873447,Elementary
515584.751365724951029,134825.042457954958081,146,PS176,Marion W Cross School,22 CHURCH STREET,NORWICH,VT,05055,-72.3066127,43.71348306,Elementary
482048.935270492918789,40979.36723455414176,147,PS177,Marlboro Elementary School,2669 RTE 9,MARLBORO,VT,05344,-72.71968842,42.86869812,Elementary
451522.90157806314528,268447.071638399735093,148,PS295,Mary S Babcock Elementary,113 GRAND AVENUE,SWANTON,VT,05488,-73.11393633,44.91455885,Elementary
441356.755520595237613,98623.09516024030745,149,PS392,Mettawee Community US #47,5788 VT ROUTE 153,WEST PAWLET,VT,05775,-73.22375323,43.38550494,Elementary
446947.005125801078975,168037.150904886424541,150,PS179,Middlebury ID#4,201 MARY HOGAN DRIVE,MIDDLEBURY,VT,05753,-73.16159909,44.01065501,Elementary
446820.180037682875991,167598.052280478179455,151,PS180,Middlebury Union High School,73 CHARLES AVENUE,MIDDLEBURY,VT,05753,-73.16313653,44.00669412,Secondary
447668.148166473023593,166660.57746360450983,152,PS366,Middlebury Union Middle School #3,48 DEERFIELD LANE,MIDDLEBURY,VT,05753,-73.15247082,43.99831806,Middle
449813.52685647085309,109494.898946365341544,153,PS182,Middletown Springs Elem School,15 SCHOOL HOUSE ROAD,MIDDLETOWN SPR,VT,05757,-73.12038824,43.48397051,Elementary
461896.739923723973334,116428.410632822662592,154,PS183,Mill River US #40,2321 MIDDLE ROAD,NORTH CLARENDON,VT,05759,-72.97151106,43.54708974,Secondary
530220.590483356267214,233681.19474202208221,155,PS184,Millers Run School US #37,3249 VT ROUTE 122,SHEFFIELD,VT,05866,-72.1193256,44.60271555,Elementary
451609.201226143166423,237104.240249209105968,156,PS140,Milton Elementary School,42 HERRICK AVENUE,MILTON,VT,05468,-73.10986774,44.63252648,Elementary
450887.65204147156328,236729.07724086008966,157,PS186,Milton High School,17 REBECCA LANDER DRIVE,MILTON,VT,05468,-73.11892499,44.62910158,Secondary
452489.749578963033855,269932.86376778408885,158,PS187,Missisquoi Valley UHS #7,100 THUNDER BIRD DRIVE,SWANTON,VT,05488,-73.10183196,44.92799359,Secondary
442628.136641778983176,44476.967749811708927,159,PS188,Molly Stark School,181 ORCHARD STREET,BENNINGTON,VT,05201,-73.20246124,42.89823914,Elementary
449002.192711715586483,193975.432657042518258,160,PS189,Monkton Central School,1036 MONKTON ROAD,NO FERRISBURG,VT,05473,-73.13848105,44.24423133,Elementary
490815.301998657174408,265159.452947339043021,161,PS190,Montgomery Elementary School,249 SCHOOL DRIVE,MONTGOMERY CTR,VT,05471,-72.61626283,44.88656524,Elementary
493052.20081674028188,195595.184594551101327,162,PS191,Montpelier High School,5 HIGH SCHOOL DRIVE,MONTPELIER,VT,05602,-72.587009,44.26056,Secondary
441947.963969145901501,43005.884100442752242,163,PS192,Monument Elementary School,66 MAIN STREET,BENNINGTON,VT,05201,-73.21063661,42.88494609,Elementary
479026.689379678107798,194179.233233233913779,164,PS193,Moretown Elementary School,940 ROUTE 100B,MORETOWN,VT,05660,-72.762596,44.247548,Elementary
493221.823984898626804,229293.431537935510278,165,PS194,Morristown Elem Schools,548 PARK STREET,MORRISVILLE,VT,05661,-72.58532457,44.56383126,Elementary
452470.708042945712805,181879.35366977751255,166,PS195,Mt Abraham UHS #28,220 AIRPORT DRIVE,BRISTOL,VT,05443,-73.09396415,44.1356078,Secondary
443538.754754627123475,43138.332868564873934,167,PS196,Mt Anthony Sr UHS #14,301 PARK STREET EXTENSION,BENNINGTON,VT,05201,-73.19117786,42.88625752,Secondary
443836.391618904657662,45267.231046548113227,168,PS197,Mt Anthony Union Middle School,747 EAST ROAD,BENNINGTON,VT,05201,-73.18774748,42.90544236,Middle
473849.957214856520295,105123.458686294034123,169,PS198,Mt Holly School,150 SCHOOL STREET,MOUNT HOLLY,VT,05758,-72.82305519,43.44584953,Elementary
463265.94811699911952,220801.186538025736809,170,PS199,Mt Mansfield US #17,211 BROWNS TRACE RD,JERICHO,VT,05465,-72.96180168,44.48650446,Secondary
455349.993037627078593,147501.346597760915756,171,PS200,Neshobe School,17 NESHOBE CIRCLE,BRANDON,VT,05733,-73.05509375,43.82639283,Elementary
543542.304799762554467,243481.103487148880959,172,PS201,Newark School,1448 NEWARK STREET,NEWARK,VT,05871,-71.95069314,44.69022034,Elementary
487756.86474780831486,51102.034763982519507,173,PS408,Newbrook Elementary School,14 SCHOOL ROAD,NEWFANE,VT,05345,-72.65005493,42.95993423,Elementary
535242.742936032824218,175521.102655855938792,174,PS202,Newbury Elementary School,214 PULASKI STREET,NEWBURY,VT,05051,-72.05999785,44.07907994,Elementary
524310.303245851770043,271682.790553413331509,175,PS204,Newport City Elem Schools,166 SIAS AVENUE,NEWPORT,VT,05855,-72.1919609,44.94491107,Elementary
515298.259205458685756,272409.954842090606689,176,PS205,Newport Town School,4212 VT ROUTE 105,NEWPORT CENTER,VT,05857,-72.30613084,44.95170551,Elementary
510805.87366527505219,148317.855398520827293,177,PS206,Newton School,243 VT RTE 132,SOUTH STRAFFORD,VT,05070,-72.36564078,43.83501091,Elementary
523419.289357021450996,271845.7491455655545,178,PS208,North Country UHS #22A,209 VETERANS AVE,NEWPORT,VT,05855,-72.20324334,44.94640737,Secondary
529090.133266302756965,272185.942041883245111,179,PS364,North Country Union JR High #22B,57 JUNIOR HIGH DRIVE,DERBY,VT,05829,-72.1313672,44.94925929,Middle
439655.362239010632038,261470.413839902728796,180,PS209,North Hero School,6441 US ROUTE 2,NORTH HERO,VT,05474,-73.26338959,44.85087585,Elementary
462714.369748486205935,124304.516240157186985,181,PS255,Northeast Primary School,117 TEMPLE STREET,RUTLAND,VT,05701,-72.96193528,43.61802067,Elementary
487035.044459136202931,183825.215303590521216,182,PS210,Northfield Elementary School,10 CROSS STREET,NORTHFIELD,VT,05663,-72.66207238,44.15454961,Elementary
487113.610603209584951,183732.277703503146768,183,PS211,Northfield Middle/High School,"37 CROSS STREET, UNIT 2+3",NORTHFIELD,VT,05663,-72.66108797,44.15371457,Secondary
460338.854738273657858,123719.726351613178849,184,PS256,Northwest Primary School,80 PIERPOINT AVENUE,RUTLAND,VT,05701,-72.99132188,43.61263456,Elementary
495247.915634784847498,37785.395391579717398,185,PS383,Oak Grove School,15 MORELAND AVENUE,BRATTLEBORO,VT,05301,-72.5581301,42.84014187,Elementary
507696.839038379490376,183218.285639025270939,186,PS215,Orange Center School,357 US ROUTE 302,EAST BARRE,VT,05649,-72.40379207,44.1491617,Elementary
443686.104258764535189,215753.501541325822473,187,PS216,Orchard School,2 BALDWIN AVENUE,SO BURLINGTON,VT,05403-7316,-73.20738526,44.4398209,Elementary
523981.650189545936882,256696.191115455701947,188,PS217,Orleans Elementary School,53 SCHOOL STREET,ORLEANS,VT,05860,-72.19683422,44.81006209,Elementary
435695.089851322583854,145235.358755649998784,189,PS218,Orwell Village School,494 MAIN STREET,ORWELL,VT,05760,-73.29915373,43.80455177,Elementary
506710.881277460604906,127699.879187319427729,190,PS380,Ottauquechee School,304 DODY LANE,QUECHEE,VT,05059,-72.41681481,43.6494847,Elementary
455591.396813851781189,140914.210719626396894,191,PS219,Otter Valley UHS #8,2997 FRANKLIN STREET,BRANDON,VT,05733,-73.05154714,43.76712227,Secondary
530955.471636040136218,167590.933048469945788,192,PS220,Oxbow UHS #30,36 OXBOW DRIVE,BRADFORD,VT,05033,-72.11398644,44.00790235,Secondary
526599.354127983562648,202918.936153372749686,193,PS223,Peacham Elementary School,340 BAILEY HAZEN ROAD,PEACHAM,VT,05862,-72.16651956,44.3260184,Elementary
492856.249456557445228,229164.912497816607356,194,PS224,Peoples Academy,202 COPLEY AVENUE,MORRISVILLE,VT,05661,-72.58992469,44.56267114,Secondary
492856.249456557445228,229183.433457832783461,195,PS394,Peoples Academy Middle School,202 COPLEY AVENUE,MORRISVILLE,VT,05661,-72.58992494,44.56283782,Middle
497669.331061040051281,128147.295123735442758,196,PS226,Pomfret School,1071 POMFRET RD,SO POMFRET,VT,05067,-72.52889191,43.6535384,Elementary
439966.912959300912917,227054.94948785007,197,PS227,Porters Point School,490 PORTERS POINT RD,COLCHESTER,VT,05446,-73.25541148,44.54122005,Elementary
440365.619391672313213,114083.501446638256311,198,PS229,Poultney Elementary School,96 SCHOOL CIRCLE,POULTNEY,VT,05764,-73.23767405,43.52457588,Elementary
440992.190656255930662,113197.474181812256575,199,PS230,Poultney High School,154 EAST MAIN STREET,POULTNEY,VT,05764,-73.22982788,43.51665115,Secondary
441271.515840515494347,33634.233147714287043,200,PS231,Pownal Elementary School,94 SCHOOLHOUSE ROAD,POWNAL,VT,05261,-73.21793917,42.80053689,Elementary
456541.695822737179697,129216.731028731912374,201,PS232,Proctor Elementary School,14 SCHOOL STREET,PROCTOR,VT,05765,-73.038801,43.661898,Elementary
457316.09428745880723,128449.549332017078996,202,PS233,Proctor Jr/Sr High School,4 PARK STREET,PROCTOR,VT,05765,-73.02913968,43.65503792,Secondary
497697.289589066058397,54012.080846691504121,203,PS234,Putney Central School,182 WESTMINSTER ROAD,PUTNEY,VT,05346,-72.52823462,42.98622491,Elementary
487116.597995212301612,159306.968368755653501,204,PS359,Randolph Elementary School,40 AYERS BROOK ROAD,RANDOLPH,VT,05060,-72.66045617,43.93388378,Elementary
487160.242155252955854,158969.917360441759229,205,PS237,Randolph UHS #2,15 FOREST STREET,RANDOLPH,VT,05060,-72.65990448,43.93085098,Secondary
497053.829876466654241,105884.391551002860069,206,PS239,Reading Elementary School,632 VT RTE 106,READING,VT,05062,-72.5364011,43.45314929,Elementary
463953.629141639918089,30295.6681526042521,207,PS240,Readsboro Elementary School,301 PHELPS LANE,READSBORO,VT,05350,-72.94045412,42.77188624,Elementary
485926.669290103949606,275948.98716538771987,208,PS241,Richford Elementary School,1 ELEMENTARY SCHOOL ROAD,RICHFORD,VT,05476,-72.67844489,44.98357733,Elementary
486614.378218744881451,277212.53494256362319,209,PS242,Richford Jr/Sr High School,1 CORLISS HEIGHTS,RICHFORD,VT,05476,-72.66975858,44.99496082,Secondary
460696.56251460686326,212577.741794368252158,210,PS243,Richmond Elementary School,125 SCHOOL STREET,RICHMOND,VT,05477,-72.993478,44.412365,Elementary
446143.637317053042352,218753.772520119324327,211,PS271,Rick Marcotte Central School,10 MARKET STREET,SO BURLINGTON,VT,05403-5779,-73.176829,44.467007,Elementary
456817.896782994270325,165140.820790188387036,212,PS244,Ripton Elementary School,753 RIPTON LINCOLN ROAD,RIPTON,VT,05766,-73.0382741,43.98523496,Elementary
500281.382263473235071,89313.837935568764806,214,PS245,Riverside Middle School,13 FAIRGROUND ROAD,SPRINGFIELD,VT,05156,-72.49653192,43.30399996,Middle
455456.167117726057768,191637.414222866296768,215,PS246,Robinson School,41 PARSONAGE ROAD,STARKSBORO,VT,05487,-73.05748414,44.22361353,Elementary
475130.8296640496701,152472.664362391456962,216,PS247,Rochester School,222 SOUTH MAIN STREET,ROCHESTER,VT,05767-9679,-72.8094124,43.87206622,K-12
481345.37354183755815,176921.393345160409808,217,PS250,Roxbury Village School,1559 ROXBURY ROAD,ROXBURY,VT,05669,-72.73295307,44.09229245,Elementary
491808.190959581173956,205642.860763909295201,218,PS181,Rumney Memorial School,433 SHADY RILL ROAD,MIDDLESEX,VT,05602,-72.60274563,44.35097346,Elementary
463313.66651704441756,124277.494928132742643,219,PS253,Rutland High School,22 STRATTON ROAD,RUTLAND,VT,05701,-72.95450894,43.61780723,Secondary
461261.700947132892907,123766.584591656923294,220,PS382,Rutland Intermediate School,63-65 LIBRARY AVENUE,RUTLAND,VT,05701,-72.97989342,43.61310487,Elementary
461177.651539054699242,123745.718543637543917,221,PS365,Rutland Middle School,63-65 LIBRARY AVE,RUTLAND,VT,05701,-72.9809331,43.61291269,Middle
462603.335252382792532,126607.959186302497983,222,PS258,Rutland Town Elem School,1612 POST ROAD,RUTLAND TOWN,VT,05701,-72.96347013,43.6387473,Elementary
450364.155848983675241,157910.53009545430541,223,PS259,Salisbury Community School,286 KELLEY CROSS ROAD,SALISBURY,VT,05769,-73.11804228,43.91975665,Elementary
528443.909649700857699,156487.314094129949808,224,PS106,Samuel Morey Elementary School,214 SCHOOL ST,FAIRLEE,VT,05045,-72.14589888,43.90806992,Elementary
499246.844150509685278,71144.803038647398353,225,PS260,Saxtons River Elem School,SCHOOL STREET,SAXTONS RIVER,VT,05154,-72.50925798,43.14045181,Elementary
442208.411841387860477,49663.864266643300653,226,PS262,Shaftsbury Elem School,150 BUCK HILL ROAD,SHAFTSBURY,VT,05262,-73.20813449,42.94489602,Elementary
503538.493050506338477,142750.171937335282564,227,PS263,Sharon Elementary School,75 ROUTE 132,SHARON,VT,05065,-72.45603943,43.78496933,Elementary
441432.87545666564256,209193.689439216628671,228,PS264,Shelburne Community School,345 HARBOR ROAD,SHELBURNE,VT,05482,-73.2349472,44.38061142,Elementary
462921.104468678124249,266827.446036892011762,229,PS266,Sheldon Elementary School,78 POOR FARM ROAD,SHELDON,VT,05483,-72.96947117,44.90066943,Elementary
434409.887290125712752,154949.627564698457718,230,PS268,Shoreham Elementary School,130 SCHOOL ROAD,SHOREHAM,VT,05770,-73.3163156,43.89186309,Elementary
473279.937118325382471,113977.315078539773822,231,PS269,Shrewsbury Mountain School,300 MOUNTAIN SCHOOL ROAD,CUTTINGSVILLE,VT,05738,-72.83053128,43.52552203,Elementary
469967.569243241101503,208263.529950350522995,232,PS270,Smilie Memorial School,2712 THEODORE ROOSEVELT HWY,BOLTON,VT,05676,-72.87682867,44.37398321,Elementary
446050.971460967324674,217403.22915886156261,233,PS272,So Burlington High School,550 DORSET STREET,SO BURLINGTON,VT,05403-6296,-73.17785284,44.45484673,Secondary
498597.220341904088855,146530.799012856557965,234,PS274,So Royalton Elem/High School,223 SOUTH WINDSOR ST,SOUTH ROYALTON,VT,05068,-72.51743737,43.81900415,K-12
500480.303607658483088,187683.593675183132291,235,PS276,Spaulding UHS #41,155 AYERS STREET,BARRE,VT,05641,-72.49399228,44.18938966,Secondary
501777.63634486682713,86776.892781207337976,236,PS278,Springfield High School,303 SOUTH STREET,SPRINGFIELD,VT,05156,-72.47809856,43.28116199,Secondary
453216.690763640217483,257964.946444638073444,237,PS288,St Albans City School,29 BELLOWS STREET,ST ALBANS,VT,05478,-73.09151973,44.82035005,Elementary
453622.022988017648458,255891.320330707356334,238,PS289,St Albans Town Educ Center,169 SOUTH MAIN STREET,ST ALBANS,VT,05478-1898,-73.086206,44.801717,Elementary
538277.858458859845996,213036.877538794651628,239,PA004,St Johnsbury Academy,1000 MAIN STREET,ST JOHNSBURY,VT,05819,-72.01936445,44.41655179,Charter
537832.771994445472956,213036.636642795056105,240,PS400,St Johnsbury Schools,257 WESTERN AVENUE SUITE 2,ST JOHNSBURY,VT,05819,-72.024953,44.416573,Elementary
453550.817483951337636,28462.516662897542119,241,PS284,Stamford Elementary School,986 MAIN ROAD,STAMFORD,VT,05352,-73.06741108,42.75482527,Elementary
482447.064038863405585,140463.007647205144167,242,PS285,Stockbridge Central School,2933 VT ROUTE 107,STOCKBRIDGE,VT,05772,-72.71799387,43.76418408,Elementary
485346.959209564141929,218115.296231525018811,243,PS286,Stowe Elementary School,254 PARK STREET,STOWE,VT,05672,-72.684137,44.463118,Elementary
481981.37738242931664,218368.758247761055827,244,PS287,Stowe Middle/ High School,413 BARROWS RD,STOWE,VT,05672-1314,-72.726439,44.465323,Secondary
444826.164931826293468,147123.84810140915215,245,PS290,Sudbury Country School,31 SCHOOLHOUSE ROAD,BRANDON,VT,05733,-73.18587986,43.82228507,Elementary
451190.807113753631711,221638.92132280766964,246,PS292,Summit Street School,17 SUMMIT STREET,ESSEX JUNCTION,VT,05452,-73.11367562,44.49332856,Elementary
448907.644231627695262,65146.405081061646342,247,PS293,Sunderland Elem School,98 BEAR RIDGE RD,ARLINGTON,VT,05250,-73.12746956,43.08473654,Elementary
442983.148354109376669,220688.820329921320081,248,PS159,Sustain Academy,123 NORTH STREET,BURLINGTON,VT,05401,-73.21675794,44.48417779,Elementary
537419.770138060674071,237151.960057254880667,249,PS294,Sutton Village School,95 UNDERPASS ROAD,SUTTON,VT,05867-9739,-72.02839097,44.63361053,Elementary
451596.382026131264865,268543.328790489584208,250,PS295,Swanton Central Building School,24 FOURTH STREET,SWANTON,VT,05488,-73.113015,44.91543,Elementary
479813.40298041049391,204352.634842706844211,251,PS390,Thatcher Brook Primary US #45,47 STOWE STREET,WATERBURY,VT,05676,-72.75313906,44.33912756,Elementary
521674.946955396793783,146066.499492423608899,252,PA005,Thetford Academy,37 ACADEMY RD,THETFORD,VT,05074,-72.230588,43.814509,Charter
521592.776075320318341,146626.466340946033597,253,PS298,Thetford Elementary School,2689 RT 113,THETFORD,VT,05074,-72.23158677,43.81955134,Elementary
451203.280201765708625,221801.903082959353924,254,PS299,Thomas Fleming School,9 PROSPECT STREET,ESSEX JUNCTION,VT,05452,-73.11353418,44.49479607,Elementary
455395.615565669722855,105625.1073267608881,255,PS300,Tinmouth Elementary School,573 ROUTE 140,TINMOUTH,VT,05773,-73.05107117,43.44949341,Elementary
486182.433642341755331,60739.291860956698656,256,PS301,Townshend Village School,66 COMMON RD RT 30,TOWNSHEND,VT,05353,-72.66958993,43.04665964,Elementary
507456.125438154675066,277296.552606642246246,257,PS302,Troy Elementary School,126 MAIN ST,NORTH TROY,VT,05859,-72.40543885,44.99580388,Elementary
502023.318905095569789,157415.022254994139075,258,PS303,Tunbridge Central School,523 ROUTE 110,TUNBRIDGE,VT,05077,-72.47480774,43.91696549,Elementary
469836.420059118419886,40737.235650328919291,259,PS346,Twin Valley High School,1 SCHOOL STREET,WILMINGTON,VT,05363,-72.86913201,42.86613417,Secondary
472170.391389292664826,32044.891578232869506,260,PS403,Twin Valley Middle School,4299 VT RT 100,WHITINGHAM,VT,05361,-72.84014086,42.78797487,Middle
508371.746175007894635,199754.508758425712585,261,PS304,Twinfield US #33,106 NASMITH BROOK ROAD,PLAINFIELD,VT,05667,-72.395092,44.297978,K-12
497869.775605226866901,193811.882064890116453,262,PS305,U32 UHS #32,930 GALLISON HILL ROAD,MONTPELIER,VT,05602,-72.52667008,44.2445406,Secondary
468715.196762074716389,223423.76305246911943,263,PS306,Underhill Central Elementary School,6 IRISH SETTLEMENT ROAD,UNDERHILL CTR,VT,05490-9998,-72.89345695,44.51036206,Elementary
464570.453846214339137,224290.314477276057005,264,PS307,Underhill ID Elementary School,10 RIVER ROAD,JERICHO,VT,05465,-72.94564174,44.51796882,Elementary
494325.176561925560236,195504.313554467633367,265,PS308,Union Elementary School,1 PARK AVENUE,MONTPELIER,VT,05602,-72.57106624,44.25975321,Elementary
447541.847238355316222,227848.9424485899508,266,PS309,Union Memorial School,253 MAIN ST,COLCHESTER,VT,05446-0160,-73.16018168,44.54895565,Elementary
500971.051256115548313,88358.537454679608345,267,PS280,Union Street School,43 UNION STREET,SPRINGFIELD,VT,05156,-72.48803334,43.29540041,Elementary
440182.369087501429021,185471.912649122998118,268,PS311,Vergennes UES #44,43 EAST STREET,VERGENNES,VT,05491,-73.24792566,44.16703649,Elementary
440567.882687860168517,185818.543945446610451,269,PS312,Vergennes UHS #5,50 MONKTON ROAD,VERGENNES,VT,05491,-73.24314499,44.17018735,Secondary
498480.451957795768976,30687.949752969667315,270,PS313,Vernon Elementary School,381 GOVERNOR HUNT ROAD,VERNON,VT,05354,-72.51856883,42.77626311,Elementary
519113.206153010949492,175520.099647855386138,271,PS310,Waits River Valley US #36,6 WAITS RIVER VALLEY ROAD,EAST CORINTH,VT,05040,-72.26137109,44.07966897,Elementary
474471.821023436263204,188291.930059749633074,272,PS315,Waitsfield Elem School,3951 MAIN STREET,WAITSFIELD,VT,05673,-72.81933783,44.19441847,Elementary
522350.805772027000785,217003.66666248999536,273,PS316,Walden School,135 CAHOON FARM ROAD,WEST DANVILLE,VT,05873,-72.21917818,44.45291709,Elementary
461553.489107404835522,107926.269696904346347,274,PS317,Wallingford Village School,126 SCHOOL STREET,WALLINGFORD,VT,05773,-72.9751578,43.47054696,Elementary
476586.463713405653834,60956.356053158640862,275,PS319,Wardsboro Central School,70 SCHOOL ROAD,WARDSBORO,VT,05355,-72.78737405,43.04837845,Elementary
471771.712220921181142,179643.131587695330381,276,PS320,Warren Elementary School,273 SCHOOL ROAD,WARREN,VT,05674,-72.85264964,44.1164815,Elementary
505477.715324312448502,178633.440706754103303,277,PS322,Washington Village School,72 SCHOOL LANE,WASHINGTON,VT,05675,-72.431578,44.107918,Elementary
545588.803873668424785,211553.08336141332984,278,PS324,Waterford Elementary School,276 DUCK POND ROAD,ST JOHNSBURY,VT,05819-0276,-71.92769906,44.40277576,Elementary
480325.231844887137413,247435.565698832273483,279,PS325,Waterville Elementary School,3414 VT ROUTE 109,WATERVILLE,VT,05492-9708,-72.74836321,44.72685793,Elementary
507277.674109988845885,101245.745146682485938,280,PS407,Weathersfield School,135 SCHOOLHOUSE ROAD,ASCUTNEY,VT,05030,-72.41014329,43.41136674,Elementary
455495.966797763481736,121858.308749878779054,281,PS331,West Rutland School,713 MAIN STREET,WEST RUTLAND,VT,05777,-73.05115996,43.59560742,K-12
458801.947216842323542,233768.029814103618264,282,PS333,Westford Elementary School,146 BROOKSIDE ROAD,WESTFORD,VT,05494,-73.01895433,44.60295239,Elementary
564988.841779736801982,218594.730983972549438,283,PS168,Lunenburg/Gilman Schools,49 BOBBIN MILL RD,LUNENBURG,VT,05906,-71.68329869,44.46466117,Elementary
506660.599037414416671,215533.900005120784044,284,PS353,Woodbury Elementary School,63 VALLEY LAKE ROAD,WOODBURY,VT,05681,-72.41633278,44.44000447,Elementary
503748.903546702116728,226446.328815283253789,285,PS352,Wolcott Elementary School,320 SCHOOL HILL DRIVE,WOLCOTT,VT,05680,-72.45282899,44.53823129,Elementary
454332.580300679430366,215724.379493298009038,286,PS398,Williston Central,195 CENTRAL SCHOOL DRIVE,WILLISTON,VT,05495,-73.07365476,44.44030877,Elementary
496342.070899804122746,180382.66656438447535,287,PS343,Williamstown Elem School,100 BRUSH HILL ROAD,WILLIAMSTOWN,VT,05679,-72.54570324,44.12367246,Elementary
496269.045747736468911,180669.210948651656508,288,PS344,Williamstown Middle/High School,111B BRUSH HILL ROAD,WILLIAMSTOWN,VT,05679,-72.54661766,44.126251,Secondary
488434.37527643982321,148150.910374365746975,289,PS338,Whitcomb Jr/Sr High School,273 PLEASANT STREET,BETHEL,VT,05032,-72.64380225,43.83349683,Secondary
442911.082178042270243,171530.237628139555454,290,PS336,Weybridge Elementary School,210 QUAKER VILLAGE ROAD,WEYBRIDGE,VT,05753,-73.21230184,44.04178852,Elementary
443607.602370691485703,151122.494249133393168,291,PS340,Whiting Village School,87 SOUTH MAIN STREET,WHITING,VT,05778,-73.20144851,43.8581802,Elementary
519158.806793053634465,156396.99806204624474,292,PS399,Westshire School,PO BOX 610,WEST FAIRLEE,VT,05083,-72.26149209,43.90755677,Elementary
498410.896373731084168,124647.411728477105498,293,PS356,Woodstock Sr/Middle UHS #4,496-1 WOODSTOCK RD,WOODSTOCK,VT,05091,-72.51968888,43.6220386,Secondary
496330.457843793556094,123650.089359547942877,294,PS355,Woodstock Elementary School,15 SOUTH STREET,WOODSTOCK,VT,05091,-72.5454586,43.61305452,Elementary
508545.725823169574142,108963.436929870396852,295,PS349,Windsor State Street School,127 STATE STREET,WINDSOR,VT,05089,-72.394366,43.480821,Elementary
508702.699903315864503,108502.690689440816641,296,PS348,Windsor High School,19 ASCUTNEY STREET,WINDSOR,VT,05089,-72.392433,43.476672,Secondary
442773.669185915030539,102216.33881158567965,297,PS328,Wells Village School,135 VT RTE 140,WELLS,VT,05774,-73.20664332,43.41795522,Elementary
496689.388148127123713,63244.768087290227413,298,PS334A,Westminster West,3724 WESTMINSTER W. ROAD,PUTNEY,VT,05346,-72.54064778,43.06933166,Elementary
502947.691641955636442,63343.766615383327007,299,PS334B,Westminster Center,301 SCHOOL STREET,WESTMINSTER,VT,05158,-72.46380764,43.07022431,Elementary
481675.518822144716978,73989.638113297522068,300,PS347,Windham Elementary School,5940 WINDHAM HILL ROAD,WINDHAM,VT,05359,-72.72534227,43.16583826,Elementary
447970.925638754852116,43969.940037339925766,301,PS354,Woodford Hollow School,995 VT RTE 9,WOODFORD,VT,05201,-73.1370013,42.89405786,Elementary
529048.548242264427245,155561.939757267013192,302,PI004,Rivendell Academy,2972 RTE 25A,ORFORD,NH,03777,-72.138408,43.899755,Secondary
